     2              NAVIGATION DATA                         RINEX VERSION / TYPE
CCRINEXN V1.6.0 UX  CDDIS               27-OCT-16 17:31     PGM / RUN BY / DATE 
IGS BROADCAST EPHEMERIS FILE                                COMMENT             
    0.1211D-07  0.0000D+00 -0.1192D-06  0.0000D+00          ION ALPHA           
    0.9421D+05  0.0000D+00 -0.1966D+06  0.0000D+00          ION BETA            
   -0.186264514923D-08-0.355271367880D-14   503808     1920 DELTA-UTC: A0,A1,T,W
    17                                                      LEAP SECONDS        
                                                            END OF HEADER       
15 16 10 26 18  0  0.0-0.332206953317D-03-0.125055521494D-11 0.000000000000D+00
    0.410000000000D+02 0.742812500000D+02 0.537950979246D-08-0.648890263810D+00
    0.385008752346D-05 0.868019636255D-02 0.746175646782D-05 0.515368992996D+04
    0.324000000000D+06 0.163912773132D-06-0.289296205740D+01 0.121071934700D-06
    0.930443459791D+00 0.219281250000D+03 0.519104974577D+00-0.859928676624D-08
    0.230366738556D-09 0.100000000000D+01 0.192000000000D+04 0.000000000000D+00
    0.200000000000D+01 0.000000000000D+00-0.107102096081D-07 0.410000000000D+02
    0.322560000000D+06 0.400000000000D+01 0.000000000000D+00 0.000000000000D+00
16 16 10 26 18  0  0.0 0.128466635943D-04 0.170530256582D-11 0.000000000000D+00
    0.450000000000D+02-0.277187500000D+02 0.352728978292D-08 0.105519312021D+01
   -0.124610960484D-05 0.872338295449D-02 0.110175460577D-04 0.515359204292D+04
    0.324000000000D+06-0.931322574615D-07-0.659393196385D+00 0.115483999252D-06
    0.990668599175D+00 0.183343750000D+03 0.382980672591D+00-0.759888795276D-08
   -0.195008122871D-09 0.000000000000D+00 0.192000000000D+04 0.000000000000D+00
    0.200000000000D+01 0.000000000000D+00-0.102445483208D-07 0.450000000000D+02
    0.316800000000D+06 0.400000000000D+01 0.000000000000D+00 0.000000000000D+00
17 16 10 26 18  0  0.0-0.200377311557D-03 0.682121026330D-12 0.000000000000D+00
    0.160000000000D+02 0.514062500000D+02 0.429839333105D-08 0.731699060603D-01
    0.260584056377D-05 0.113513416145D-01 0.695325434208D-05 0.515376093483D+04
    0.324000000000D+06-0.156462192535D-06 0.359783272772D+00 0.147148966789D-06
    0.978129565514D+00 0.258031250000D+03-0.191721033503D+01-0.817284043161D-08
    0.441804117201D-09 0.000000000000D+00 0.192000000000D+04 0.000000000000D+00
    0.200000000000D+01 0.000000000000D+00-0.107102096081D-07 0.160000000000D+02
    0.321420000000D+06 0.400000000000D+01 0.000000000000D+00 0.000000000000D+00
18 16 10 26 18  0  0.0 0.570478849113D-03 0.341060513165D-11 0.000000000000D+00
    0.700000000000D+01-0.468437500000D+02 0.523021785957D-08 0.165445842322D+01
   -0.259838998318D-05 0.172614542535D-01 0.116173177957D-04 0.515373086739D+04
    0.324000000000D+06-0.234693288803D-06 0.237056996003D+01-0.426545739174D-06
    0.925268998585D+00 0.139437500000D+03-0.185398930619D+01-0.836320550394D-08
   -0.160720980388D-09 0.100000000000D+01 0.192000000000D+04 0.000000000000D+00
    0.200000000000D+01 0.000000000000D+00-0.111758708954D-07 0.700000000000D+01
    0.321900000000D+06 0.400000000000D+01 0.000000000000D+00 0.000000000000D+00
19 16 10 26 18  0  0.0-0.521094072610D-03 0.568434188608D-12 0.000000000000D+00
    0.370000000000D+02 0.498437500000D+02 0.430232206613D-08-0.306287754338D+01
    0.246241688728D-05 0.103707743110D-01 0.636465847492D-05 0.515363307381D+04
    0.324000000000D+06 0.409781932831D-07 0.408130194684D+00-0.139698386192D-06
    0.975261144501D+00 0.264406250000D+03 0.881040600683D+00-0.787675666996D-08
    0.468233789531D-09 0.100000000000D+01 0.192000000000D+04 0.000000000000D+00
    0.200000000000D+01 0.000000000000D+00-0.149011611938D-07 0.370000000000D+02
    0.316800000000D+06 0.400000000000D+01 0.000000000000D+00 0.000000000000D+00
20 16 10 26 18  0  0.0 0.442819669843D-03 0.193267624127D-11 0.000000000000D+00
    0.890000000000D+02-0.357500000000D+02 0.522593196676D-08-0.773432497071D+00
   -0.179931521416D-05 0.474153971300D-02 0.112336128950D-04 0.515360237885D+04
    0.324000000000D+06-0.633299350738D-07 0.231897475726D+01 0.223517417908D-07
    0.926533119263D+00 0.144593750000D+03 0.146980004675D+01-0.840535011657D-08
   -0.222152110670D-09 0.100000000000D+01 0.192000000000D+04 0.000000000000D+00
    0.200000000000D+01 0.000000000000D+00-0.838190317154D-08 0.890000000000D+02
    0.316800000000D+06 0.400000000000D+01 0.000000000000D+00 0.000000000000D+00
22 16 10 26 18  0  0.0 0.207822304219D-03-0.105728759081D-10 0.000000000000D+00
    0.620000000000D+02-0.365625000000D+02 0.535986611708D-08-0.415719641055D+00
   -0.188685953617D-05 0.734484451823D-02 0.107679516077D-04 0.515369553375D+04
    0.324000000000D+06-0.949949026108D-07 0.237090034398D+01 0.298023223877D-07
    0.923227620753D+00 0.152531250000D+03-0.185306944085D+01-0.852321216885D-08
   -0.189650756858D-09 0.000000000000D+00 0.192000000000D+04 0.000000000000D+00
    0.200000000000D+01 0.000000000000D+00-0.176951289177D-07 0.620000000000D+02
    0.316800000000D+06 0.400000000000D+01 0.000000000000D+00 0.000000000000D+00
23 16 10 26 18  0  0.0-0.194667838514D-03-0.125055521494D-11 0.000000000000D+00
    0.980000000000D+02 0.737812500000D+02 0.490091842864D-08-0.115455945935D+01
    0.381655991077D-05 0.111248689937D-01 0.721588730812D-05 0.515359898567D+04
    0.324000000000D+06 0.227242708206D-06-0.283284713865D+01-0.186264514923D-08
    0.945644966320D+00 0.230656250000D+03-0.252454125986D+01-0.827534470132D-08
    0.270011247052D-09 0.000000000000D+00 0.192000000000D+04 0.000000000000D+00
    0.200000000000D+01 0.000000000000D+00-0.200234353542D-07 0.980000000000D+02
    0.317520000000D+06 0.400000000000D+01 0.000000000000D+00 0.000000000000D+00
24 16 10 26 18  0  0.0-0.251806341112D-04-0.568434188608D-12 0.000000000000D+00
    0.110000000000D+02-0.250000000000D+02 0.505056751927D-08-0.171862126994D+01
   -0.123120844364D-05 0.485282379668D-02 0.422634184360D-05 0.515371548462D+04
    0.324000000000D+06-0.167638063431D-07-0.180781956772D+01-0.577419996262D-07
    0.947492665501D+00 0.292093750000D+03 0.394273674555D+00-0.844392315186D-08
   -0.255724937684D-09 0.100000000000D+01 0.192000000000D+04 0.000000000000D+00
    0.200000000000D+01 0.000000000000D+00 0.232830643654D-08 0.110000000000D+02
    0.316818000000D+06 0.400000000000D+01 0.000000000000D+00 0.000000000000D+00
25 16 10 26 18  0  0.0-0.270701944828D-03-0.682121026330D-11 0.000000000000D+00
    0.105000000000D+03-0.254375000000D+02 0.377122851538D-08 0.246863645550D+01
   -0.131875276566D-05 0.563707109541D-02 0.115334987640D-04 0.515368635750D+04
    0.324000000000D+06-0.931322574616D-08-0.730911339197D+00-0.108033418655D-06
    0.978223711607D+00 0.164375000000D+03 0.770453956363D+00-0.766639076452D-08
   -0.121433629627D-09 0.100000000000D+01 0.192000000000D+04 0.000000000000D+00
    0.280000000000D+01 0.000000000000D+00 0.558793544769D-08 0.105000000000D+03
    0.316800000000D+06 0.400000000000D+01 0.000000000000D+00 0.000000000000D+00
26 16 10 26 18  0  0.0-0.492522493005D-03-0.545696821064D-11 0.000000000000D+00
    0.270000000000D+02-0.392812500000D+02 0.420624663563D-08 0.210751832849D+01
   -0.197626650333D-05 0.112540554255D-02 0.109039247036D-04 0.515360722160D+04
    0.324000000000D+06-0.149011611938D-07-0.742566645990D+00-0.298023223877D-07
    0.960104780698D+00 0.168562500000D+03-0.183668324717D+00-0.791640117846D-08
   -0.181436128972D-09 0.100000000000D+01 0.192000000000D+04 0.000000000000D+00
    0.200000000000D+01 0.000000000000D+00 0.745058059692D-08 0.270000000000D+02
    0.316800000000D+06 0.400000000000D+01 0.000000000000D+00 0.000000000000D+00
27 16 10 26 18  0  0.0 0.157081056386D-03 0.511590769747D-11 0.000000000000D+00
    0.920000000000D+02 0.475937500000D+02 0.431732269096D-08 0.141159423171D+00
    0.253506004810D-05 0.387036940083D-02 0.771880149841D-05 0.515365355301D+04
    0.324000000000D+06 0.465661287308D-07 0.309024117444D+00 0.223517417908D-07
    0.973092160714D+00 0.237906250000D+03 0.326080446102D+00-0.805783564120D-08
    0.468948105000D-09 0.000000000000D+00 0.192000000000D+04 0.000000000000D+00
    0.200000000000D+01 0.000000000000D+00 0.139698386192D-08 0.920000000000D+02
    0.316800000000D+06 0.400000000000D+01 0.000000000000D+00 0.000000000000D+00
28 16 10 26 18  0  0.0 0.562248751521D-03 0.284217094304D-11 0.000000000000D+00
    0.180000000000D+02-0.273437500000D+02 0.363836583826D-08 0.971337055470D+00
   -0.151246786118D-05 0.200174443889D-01 0.111088156700D-04 0.515363934898D+04
    0.324000000000D+06-0.303611159325D-06-0.654607998662D+00-0.227242708206D-06
    0.989414259567D+00 0.186281250000D+03-0.160689850004D+01-0.789925760721D-08
   -0.152149194767D-09 0.000000000000D+00 0.192000000000D+04 0.000000000000D+00
    0.200000000000D+01 0.000000000000D+00-0.111758708954D-07 0.180000000000D+02
    0.316860000000D+06 0.400000000000D+01 0.000000000000D+00 0.000000000000D+00
29 16 10 26 18  0  0.0 0.646107830107D-03-0.159161572810D-11 0.000000000000D+00
    0.480000000000D+02 0.532187500000D+02 0.420338937375D-08 0.218895929835D+01
    0.262819230556D-05 0.494541134685D-03 0.683963298798D-05 0.515372548103D+04
    0.324000000000D+06 0.186264514923D-07 0.369661297945D+00-0.111758708954D-07
    0.979153118092D+00 0.254031250000D+03 0.997179383381D-02-0.799104714490D-08
    0.496806408267D-09 0.100000000000D+01 0.192000000000D+04 0.000000000000D+00
    0.200000000000D+01 0.000000000000D+00-0.102445483208D-07 0.480000000000D+02
    0.316800000000D+06 0.400000000000D+01 0.000000000000D+00 0.000000000000D+00
